{"type": "FeatureCollection", "features": [ {"type": "Feature", "properties": {"norad_id": 66639, "name": "STARLINK-35908", "group": "last-30-days", "lat": 40.956317599096984, "lon": -152.55221222714508, "alt_km": 412.8278691774194, "timestamp": "2025-12-16T23:36:34.923685+00:00", "meta": {"OBJECT_NAME": "STARLINK-35908", "OBJECT_ID": "2025-271Y", "EPOCH": "2025-12-16T06:00:02.999808", "MEAN_MOTION": 15.49276603, "ECCENTRICITY": 8.837e-05, "INCLINATION": 53.1588, "RA_OF_ASC_NODE": 170.359, "ARG_OF_PERICENTER": 91.1336, "MEAN_ANOMALY": 189.3867, "EPHEMERIS_TYPE": 0, "CLASSIFICATION_TYPE": "U", "NORAD_CAT_ID": 66639, "ELEMENT_SET_NO": 999, "REV_AT_EPOCH": 480, "BSTAR": 0.00066141816, "MEAN_MOTION_DOT": 0.00036467, "MEAN_MOTION_DDOT": 0}, "tle": {"line1": "1 66639U 25271Y   25350.25003472  .00036467  00000+0  66142-3 0  9992", "line2": "2 66639  53.1588 170.3590 0000883  91.1336 189.3867 15.49276603  4806"}}, "geometry": {"type": "Point", "coordinates": [-152.55221222714508, 40.956317599096984]}}, {"type": "Feature", "properties": {"norad_id": 66640, "name": "STARLINK-35921", "group": "last-30-days", "lat": 42.103232102840245, "lon": -150.50289849377862, "alt_km": 412.5001397600581, "timestamp": "2025-12-16T23:36:34.923703+00:00", "meta": {"OBJECT_NAME": "STARLINK-35921", "OBJECT_ID": "2025-271Z", "EPOCH": "2025-12-16T06:00:02.999808", "MEAN_MOTION": 15.49281644, "ECCENTRICITY": 0.00011305, "INCLINATION": 53.1589, "RA_OF_ASC_NODE": 170.3555, "ARG_OF_PERICENTER": 89.0176, "MEAN_ANOMALY": 193.4165, "EPHEMERIS_TYPE": 0, "CLASSIFICATION_TYPE": "U", "NORAD_CAT_ID": 66640, "ELEMENT_SET_NO": 999, "REV_AT_EPOCH": 480, "BSTAR": 0.000556944, "MEAN_MOTION_DOT": 0.00030618, "MEAN_MOTION_DDOT": 0}, "tle": {"line1": "1 66640U 25271Z   25350.25003472  .00030618  00000+0  55694-3 0  9996", "line2": "2 66640  53.1589 170.3555 0001130  89.0176 193.4165 15.49281644  4802"}}, "geometry": {"type": "Point", "coordinates": [-150.50289849377862, 42.103232102840245]}}, {"type": "Feature", "properties": {"norad_id": 66641, "name": "STARLINK-35923", "group": "last-30-days", "lat": 46.28423319637224, "lon": -141.53000537417142, "alt_km": 411.88064482697973, "timestamp": "2025-12-16T23:36:34.923721+00:00", "meta": {"OBJECT_NAME": "STARLINK-35923", "OBJECT_ID": "2025-271AA", "EPOCH": "2025-12-16T06:00:02.999808", "MEAN_MOTION": 15.49277562, "ECCENTRICITY": 0.00011265, "INCLINATION": 53.159, "RA_OF_ASC_NODE": 170.3385, "ARG_OF_PERICENTER": 96.3755, "MEAN_ANOMALY": 193.7316, "EPHEMERIS_TYPE": 0, "CLASSIFICATION_TYPE": "U", "NORAD_CAT_ID": 66641, "ELEMENT_SET_NO": 999, "REV_AT_EPOCH": 480, "BSTAR": 0.00057698593, "MEAN_MOTION_DOT": 0.00031736, "MEAN_MOTION_DDOT": 0}, "tle": {"line1": "1 66641U 25271AA  25350.25003472  .00031736  00000+0  57699-3 0  9996", "line2": "2 66641  53.1590 170.3385 0001126  96.3755 193.7316 15.49277562  4800"}}, "geometry": {"type": "Point", "coordinates": [-141.53000537417142, 46.28423319637224]}}, {"type": "Feature", "properties": {"norad_id": 66642, "name": "STARLINK-35926", "group": "last-30-days", "lat": 45.30884623106219, "lon": -143.88835578920737, "alt_km": 412.18430783070653, "timestamp": "2025-12-16T23:36:34.923738+00:00", "meta": {"OBJECT_NAME": "STARLINK-35926", "OBJECT_ID": "2025-271AB", "EPOCH": "2025-12-16T06:00:02.999808", "MEAN_MOTION": 15.49276312, "ECCENTRICITY": 7.588e-05, "INCLINATION": 53.1589, "RA_OF_ASC_NODE": 170.3434, "ARG_OF_PERICENTER": 82.985, "MEAN_ANOMALY": 205.2094, "EPHEMERIS_TYPE": 0, "CLASSIFICATION_TYPE": "U", "NORAD_CAT_ID": 66642, "ELEMENT_SET_NO": 999, "REV_AT_EPOCH": 457, "BSTAR": 0.00057946846, "MEAN_MOTION_DOT": 0.00031874, "MEAN_MOTION_DDOT": 0}, "tle": {"line1": "1 66642U 25271AB  25350.25003472  .00031874  00000+0  57947-3 0  9996", "line2": "2 66642  53.1589 170.3434 0000758  82.9850 205.2094 15.49276312  4579"}}, "geometry": {"type": "Point", "coordinates": [-143.88835578920737, 45.30884623106219]}}, {"type": "Feature", "properties": {"norad_id": 66643, "name": "STARLINK-35918", "group": "last-30-days", "lat": 43.21303215787, "lon": -148.3777310309865, "alt_km": 412.2998029210503, "timestamp": "2025-12-16T23:36:34.923755+00:00", "meta": {"OBJECT_NAME": "STARLINK-35918", "OBJECT_ID": "2025-271AC", "EPOCH": "2025-12-16T06:00:02.999808", "MEAN_MOTION": 15.49280518, "ECCENTRICITY": 0.00011274, "INCLINATION": 53.1589, "RA_OF_ASC_NODE": 170.3517, "ARG_OF_PERICENTER": 86.0032, "MEAN_ANOMALY": 198.3485, "EPHEMERIS_TYPE": 0, "CLASSIFICATION_TYPE": "U", "NORAD_CAT_ID": 66643, "ELEMENT_SET_NO": 999, "REV_AT_EPOCH": 480, "BSTAR": 0.00056318683, "MEAN_MOTION_DOT": 0.00030967, "MEAN_MOTION_DDOT": 0}, "tle": {"line1": "1 66643U 25271AC  25350.25003472  .00030967  00000+0  56319-3 0  9991", "line2": "2 66643  53.1589 170.3517 0001127  86.0032 198.3485 15.49280518  4805"}}, "geometry": {"type": "Point", "coordinates": [-148.3777310309865, 43.21303215787]}}, {"type": "Feature", "properties": {"norad_id": 66644, "name": "STARLINK-35938", "group": "last-30-days", "lat": 44.28172822559647, "lon": -146.17540228347957, "alt_km": 412.4778348505188, "timestamp": "2025-12-16T23:36:34.923773+00:00", "meta": {"OBJECT_NAME": "STARLINK-35938", "OBJECT_ID": "2025-271AD", "EPOCH": "2025-12-16T06:00:02.999808", "MEAN_MOTION": 15.49281455, "ECCENTRICITY": 5.876e-05, "INCLINATION": 53.1587, "RA_OF_ASC_NODE": 170.3476, "ARG_OF_PERICENTER": 93.4783, "MEAN_ANOMALY": 192.7861, "EPHEMERIS_TYPE": 0, "CLASSIFICATION_TYPE": "U", "NORAD_CAT_ID": 66644, "ELEMENT_SET_NO": 999, "REV_AT_EPOCH": 480, "BSTAR": 0.00054834594, "MEAN_MOTION_DOT": 0.00030137, "MEAN_MOTION_DDOT": 0}, "tle": {"line1": "1 66644U 25271AD  25350.25003472  .00030137  00000+0  54835-3 0  9992", "line2": "2 66644  53.1587 170.3476 0000587  93.4783 192.7861 15.49281455  4809"}}, "geometry": {"type": "Point", "coordinates": [-146.17540228347957, 44.28172822559647]}}, {"type": "Feature", "properties": {"norad_id": 66645, "name": "SHENZHOU-22", "group": "last-30-days", "lat": -32.9696638456042, "lon": -141.79618569951927, "alt_km": 397.4623348433388, "timestamp": "2025-12-16T23:36:34.923787+00:00", "meta": {"OBJECT_NAME": "SHENZHOU-22", "OBJECT_ID": "2025-272A", "EPOCH": "2025-12-16T07:14:05.691264", "MEAN_MOTION": 15.59326293, "ECCENTRICITY": 0.00078559, "INCLINATION": 41.4684, "RA_OF_ASC_NODE": 355.0821, "ARG_OF_PERICENTER": 60.8888, "MEAN_ANOMALY": 299.2736, "EPHEMERIS_TYPE": 0, "CLASSIFICATION_TYPE": "U", "NORAD_CAT_ID": 66645, "ELEMENT_SET_NO": 999, "REV_AT_EPOCH": 26357, "BSTAR": 0.00021422181, "MEAN_MOTION_DOT": 0.00017088, "MEAN_MOTION_DDOT": 0}, "tle": {"line1": "1 66645U 25272A   25350.30145476  .00017088  00000+0  21422-3 0  9997", "line2": "2 66645  41.4684 355.0821 0007855  60.8888 299.2736 15.59326293263579"}}, "geometry": {"type": "Point", "coordinates": [-141.79618569951927, -32.9696638456042]}}, {"type": "Feature", "properties": {"norad_id": 66647, "name": "COSMOS 2597 (RODNIK-S 22)", "group": "last-30-days", "lat": -5.2513513740376965, "lon": -76.879968709513, "alt_km": 1500.4250542032123, "timestamp": "2025-12-16T23:36:34.923798+00:00", "meta": {"OBJECT_NAME": "COSMOS 2597 (RODNIK-S 22)", "OBJECT_ID": "2025-273A", "EPOCH": "2025-12-16T08:10:15.865824", "MEAN_MOTION": 12.41952054, "ECCENTRICITY": 0.00076868, "INCLINATION": 82.499, "RA_OF_ASC_NODE": 284.2131, "ARG_OF_PERICENTER": 278.311, "MEAN_ANOMALY": 81.7097, "EPHEMERIS_TYPE": 0, "CLASSIFICATION_TYPE": "U", "NORAD_CAT_ID": 66647, "ELEMENT_SET_NO": 999, "REV_AT_EPOCH": 258, "BSTAR": -8.160386e-06, "MEAN_MOTION_DOT": 9e-08, "MEAN_MOTION_DDOT": 0}, "tle": {"line1": "1 66647U 25273A   25350.34046141  .00000009  00000+0 -81604-5 0  9999", "line2": "2 66647  82.4990 284.2131 0007686 278.3110  81.7097 12.41952054  2583"}}, "geometry": {"type": "Point", "coordinates": [-76.879968709513, -5.2513513740376965]}}, {"type": "Feature", "properties": {"norad_id": 66648, "name": "COSMOS 2598 (RODNIK-S 23)", "group": "last-30-days", "lat": 49.342405865317026, "lon": -67.37118866104116, "alt_km": 1494.6607230122472, "timestamp": "2025-12-16T23:36:34.923817+00:00", "meta": {"OBJECT_NAME": "COSMOS 2598 (RODNIK-S 23)", "OBJECT_ID": "2025-273B", "EPOCH": "2025-12-16T07:53:26.070144", "MEAN_MOTION": 12.43233424, "ECCENTRICITY": 0.00080353, "INCLINATION": 82.5025, "RA_OF_ASC_NODE": 284.2168, "ARG_OF_PERICENTER": 228.3822, "MEAN_ANOMALY": 131.657, "EPHEMERIS_TYPE": 0, "CLASSIFICATION_TYPE": "U", "NORAD_CAT_ID": 66648, "ELEMENT_SET_NO": 999, "REV_AT_EPOCH": 258, "BSTAR": -6.5006315e-05, "MEAN_MOTION_DOT": 1e-08, "MEAN_MOTION_DDOT": 0}, "tle": {"line1": "1 66648U 25273B   25350.32877396  .00000001  00000+0 -65006-4 0  9991", "line2": "2 66648  82.5025 284.2168 0008035 228.3822 131.6570 12.43233424  2584"}}, "geometry": {"type": "Point", "coordinates": [-67.37118866104116, 49.342405865317026]}}, {"type": "Feature", "properties": {"norad_id": 66649, "name": "COSMOS 2599 (RODNIK-S 24)", "group": "last-30-days", "lat": -35.81750842597711, "lon": -81.61411776112435, "alt_km": 1505.0331362696797, "timestamp": "2025-12-16T23:36:34.923831+00:00", "meta": {"OBJECT_NAME": "COSMOS 2599 (RODNIK-S 24)", "OBJECT_ID": "2025-273C", "EPOCH": "2025-12-16T06:23:32.816256", "MEAN_MOTION": 12.41150989, "ECCENTRICITY": 0.00062975, "INCLINATION": 82.5046, "RA_OF_ASC_NODE": 284.2817, "ARG_OF_PERICENTER": 270.0094, "MEAN_ANOMALY": 90.0263, "EPHEMERIS_TYPE": 0, "CLASSIFICATION_TYPE": "U", "NORAD_CAT_ID": 66649, "ELEMENT_SET_NO": 999, "REV_AT_EPOCH": 257, "BSTAR": -4.7500187e-05, "MEAN_MOTION_DOT": 3e-08, "MEAN_MOTION_DDOT": 0}, "tle": {"line1": "1 66649U 25273C   25350.26635204  .00000003  00000+0 -47500-4 0  9996", "line2": "2 66649  82.5046 284.2817 0006297 270.0094  90.0263 12.41150989  2570"}}, "geometry": {"type": "Point", "coordinates": [-81.61411776112435, -35.81750842597711]}}]}